{
    "links": {
        "self": "http://www.neowsapp.com/rest/v1/neo/3685271?api_key=iIulBulltgU6a56xZRHN4H3l9WmuAYTsLGpBGhQ2"
    },
    "id": "3685271",
    "neo_reference_id": "3685271",
    "name": "(2014 QN390)",
    "designation": "2014 QN390",
    "nasa_jpl_url": "http://ssd.jpl.nasa.gov/sbdb.cgi?sstr=3685271",
    "absolute_magnitude_h": 23.6,
    "estimated_diameter": {
        "kilometers": {
            "estimated_diameter_min": 0.0506471459,
            "estimated_diameter_max": 0.1132504611
        },
        "meters": {
            "estimated_diameter_min": 50.6471458835,
            "estimated_diameter_max": 113.2504610618
        },
        "miles": {
            "estimated_diameter_min": 0.0314706677,
            "estimated_diameter_max": 0.0703705522
        },
        "feet": {
            "estimated_diameter_min": 166.1651821003,
            "estimated_diameter_max": 371.5566426699
        }
    },
    "is_potentially_hazardous_asteroid": false,
    "close_approach_data": [
        {
            "close_approach_date": "2014-09-12",
            "close_approach_date_full": "2014-Sep-12 23:22",
            "epoch_date_close_approach": 1410564120000,
            "relative_velocity": {
                "kilometers_per_second": "8.6351049014",
                "kilometers_per_hour": "31086.3776449701",
                "miles_per_hour": "19315.8661538982"
            },
            "miss_distance": {
                "astronomical": "0.2126797314",
                "lunar": "82.7324155146",
                "kilometers": "31816434.809612118",
                "miles": "19769815.8521505084"
            },
            "orbiting_body": "Earth"
        }
    ],
    "orbital_data": {
        "orbit_id": "6",
        "orbit_determination_date": "2017-04-06 08:38:56",
        "first_observation_date": "2014-08-31",
        "last_observation_date": "2014-09-15",
        "data_arc_in_days": 15,
        "observations_used": 15,
        "orbit_uncertainty": "8",
        "minimum_orbit_intersection": ".212721",
        "jupiter_tisserand_invariant": "3.970",
        "epoch_osculation": "2456902.5",
        "eccentricity": ".3235848995988654",
        "semi_major_axis": "1.792066137830248",
        "inclination": "16.14075581804832",
        "ascending_node_longitude": "165.1817582526379",
        "orbital_period": "876.2529182734378",
        "perihelion_distance": "1.212180596545921",
        "perihelion_argument": "195.6103341557581",
        "aphelion_distance": "2.371951679114576",
        "perihelion_time": "2456926.001938460303",
        "mean_anomaly": "350.3444568693934",
        "mean_motion": ".4108402865115032",
        "equinox": "J2000",
        "orbit_class": {
            "orbit_class_type": "AMO",
            "orbit_class_description": "Near-Earth asteroid orbits similar to that of 1221 Amor",
            "orbit_class_range": "1.017 AU < q (perihelion) < 1.3 AU"
        }
    },
    "is_sentry_object": false
}